NORAD_CAT_ID,OBJECT_NAME,OBJECT_TYPE,EPOCH,MEAN_MOTION,ECCENTRICITY,INCLINATION,RA_OF_ASC_NODE,ARG_OF_PERICENTER,MEAN_ANOMALY,BSTAR,MEAN_MOTION_DOT,MEAN_MOTION_DDOT,TLE_LINE0,TLE_LINE1,TLE_LINE2,SEMIMAJOR_AXIS,PERIOD,APOGEE,PERIGEE,DECAYED
52469.0,STARLINK-3828,PAYLOAD,2023-08-11 09:16:10,15.08833739,0.0001027,53.217,324.8011,65.0257,295.0841,5.9671e-05,6.62e-06,0.0,0 STARLINK-3828,1 52469U 22049U   23223.38623166  .00000662  00000-0  59671-4 0  9996,2 52469  53.2170 324.8011 0001027  65.0257 295.0841 15.08833739 70306,6917.9,95.438,540.475,539.054,0.0
52469.0,STARLINK-3828,PAYLOAD,2023-08-12 12:17:43,15.0884163,8.67e-05,53.2168,319.7451,87.9859,272.1232,-1.1747e-06,-3.06e-06,0.0,0 STARLINK-3828,1 52469U 22049U   23224.51230772 -.00000306  00000-0 -11747-5 0  9999,2 52469  53.2168 319.7451 0000867  87.9859 272.1232 15.08841630 70473,6917.875,95.437,540.34,539.141,0.0
52469.0,STARLINK-3828,PAYLOAD,2023-08-13 13:43:53,15.08841087,9.39e-05,53.217,314.9862,80.0512,280.0586,7.6832e-05,9.35e-06,0.0,0 STARLINK-3828,1 52469U 22049U   23225.57215028  .00000935  00000-0  76832-4 0  9994,2 52469  53.2170 314.9862 0000939  80.0512 280.0586 15.08841087 70633,6917.877,95.437,540.392,539.092,0.0
52469.0,STARLINK-3828,PAYLOAD,2023-08-14 23:06:59,15.088416,9.76e-05,53.2168,308.7427,84.7765,275.3339,0.0002597,3.848e-05,0.0,0 STARLINK-3828,1 52469U 22049U   23226.96319303  .00003848  00000-0  25970-3 0  9991,2 52469  53.2168 308.7427 0000976  84.7765 275.3339 15.08841600 70847,6917.875,95.437,540.416,539.065,0.0
52469.0,STARLINK-3828,PAYLOAD,2023-08-15 15:00:52,15.08822844,0.000108,53.2167,305.7684,104.5729,255.5383,0.0010335,0.00016191,0.0,0 STARLINK-3828,1 52469U 22049U   23227.62560296  .00016191  00000-0  10335-2 0  9997,2 52469  53.2167 305.7684 0001080 104.5729 255.5383 15.08822844 70945,6917.933,95.439,540.545,539.051,0.0
52469.0,STARLINK-3828,PAYLOAD,2023-08-17 09:56:15,15.08839266,9.68e-05,53.218,297.736,109.6775,250.4322,5.8232e-05,6.39e-06,0.0,0 STARLINK-3828,1 52469U 22049U   23229.41407226  .00000639  00000-0  58232-4 0  9999,2 52469  53.2180 297.7360 0000968 109.6775 250.4322 15.08839266 71216,6917.883,95.438,540.417,539.078,0.0
52469.0,STARLINK-3828,PAYLOAD,2023-08-18 00:14:44,15.08832268,0.0001176,53.2168,295.0628,97.0364,263.0762,4.2566e-05,3.9e-06,0.0,0 STARLINK-3828,1 52469U 22049U   23230.01023869  .00000390  00000-0  42566-4 0  9991,2 52469  53.2168 295.0628 0001176  97.0364 263.0762 15.08832268 71309,6917.904,95.438,540.583,538.955,0.0
52469.0,STARLINK-3828,PAYLOAD,2023-08-19 04:51:40,15.08838927,0.0001151,53.2181,289.7134,106.8468,253.265,6.2417e-05,7.06e-06,0.0,0 STARLINK-3828,1 52469U 22049U   23231.20255750  .00000706  00000-0  62417-4 0  9997,2 52469  53.2181 289.7134 0001151 106.8468 253.2650 15.08838927 71487,6917.884,95.438,540.545,538.952,0.0
52469.0,STARLINK-3828,PAYLOAD,2023-08-20 12:39:24,15.08824219,0.0001038,53.2174,283.7658,98.3953,261.7157,0.00024753,3.652e-05,0.0,0 STARLINK-3828,1 52469U 22049U   23232.52736537  .00003652  00000-0  24753-3 0  9993,2 52469  53.2174 283.7658 0001038  98.3953 261.7157 15.08824219 71689,6917.929,95.439,540.512,539.076,0.0
52469.0,STARLINK-3828,PAYLOAD,2023-08-21 02:57:52,15.08839936,0.0001191,53.2167,281.0875,82.8188,277.294,0.00010049,1.312e-05,0.0,0 STARLINK-3828,1 52469U 22049U   23233.12351987  .00001312  00000-0  10049-3 0  9996,2 52469  53.2167 281.0875 0001191  82.8188 277.2940 15.08839936 71775,6917.881,95.438,540.57,538.922,0.0
52469.0,STARLINK-3828,PAYLOAD,2023-08-21 10:54:47,15.08846897,0.0001189,53.2165,279.6006,82.3414,277.7713,0.00013339,1.836e-05,0.0,0 STARLINK-3828,1 52469U 22049U   23233.45471471  .00001836  00000-0  13339-3 0  9999,2 52469  53.2165 279.6006 0001189  82.3414 277.7713 15.08846897 71829,6917.859,95.437,540.547,538.902,0.0
52469.0,STARLINK-3828,PAYLOAD,2023-08-22 02:48:39,15.08837707,0.0001274,53.2165,276.6283,79.3502,280.7634,6.9281e-05,8.15e-06,0.0,0 STARLINK-3828,1 52469U 22049U   23234.11712269  .00000815  00000-0  69281-4 0  9990,2 52469  53.2165 276.6283 0001274  79.3502 280.7634 15.08837707 71929,6917.887,95.438,540.634,538.871,0.0
52469.0,STARLINK-3828,PAYLOAD,2023-08-24 10:27:08,15.08839819,0.0001264,53.2162,266.2176,91.5657,268.548,7.6706e-05,9.33e-06,0.0,0 STARLINK-3828,1 52469U 22049U   23236.43552046  .00000933  00000-0  76706-4 0  9993,2 52469  53.2162 266.2176 0001264  91.5657 268.5480 15.08839819 72119,6917.881,95.438,540.62,538.872,0.0
52469.0,STARLINK-3828,PAYLOAD,2023-08-25 02:21:00,15.08838214,0.0001338,53.2162,263.2443,95.2518,264.8627,1.9215e-05,1.8e-07,0.0,0 STARLINK-3828,1 52469U 22049U   23237.09792363  .00000018  00000-0  19215-4 0  9990,2 52469  53.2162 263.2443 0001338  95.2518 264.8627 15.08838214 72370,6917.886,95.438,540.676,538.825,0.0
52469.0,STARLINK-3828,PAYLOAD,2023-08-25 10:17:56,15.08841008,0.0001369,53.2162,261.7571,99.085,261.0297,3.6249e-05,2.89e-06,0.0,0 STARLINK-3828,1 52469U 22049U   23237.42912095  .00000289  00000-0  36249-4 0  9999,2 52469  53.2162 261.7571 0001369  99.0850 261.0297 15.08841008 72265,6917.877,95.437,540.689,538.795,0.0
52469.0,STARLINK-3828,PAYLOAD,2023-08-26 10:08:43,15.08836383,0.0001384,53.2166,257.2963,93.328,266.787,3.6437e-05,2.92e-06,0.0,0 STARLINK-3828,1 52469U 22049U   23238.42272601  .00000292  00000-0  36437-4 0  9995,2 52469  53.2166 257.2963 0001384  93.3280 266.7870 15.08836383 72578,6917.891,95.438,540.714,538.799,0.0
52469.0,STARLINK-3828,PAYLOAD,2023-08-27 08:24:07,15.08840086,0.0001379,53.2166,253.1334,93.398,266.717,6.279e-05,7.12e-06,0.0,0 STARLINK-3828,1 52469U 22049U   23239.35008537  .00000712  00000-0  62790-4 0  9991,2 52469  53.2166 253.1334 0001379  93.3980 266.7170 15.08840086 72552,6917.88,95.438,540.699,538.791,0.0
52469.0,STARLINK-3828,PAYLOAD,2023-08-28 01:53:22,15.08837958,0.0001353,53.2167,249.8627,92.0437,268.071,6.3696e-05,7.26e-06,0.0,0 STARLINK-3828,1 52469U 22049U   23240.07872777  .00000726  00000-0  63696-4 0  9998,2 52469  53.2167 249.8627 0001353  92.0437 268.0710 15.08837958 72824,6917.887,95.438,540.688,538.816,0.0
52469.0,STARLINK-3828,PAYLOAD,2023-08-28 17:47:13,15.08838138,0.0001418,53.2165,246.8887,85.7761,274.3393,5.2337e-05,5.45e-06,0.0,0 STARLINK-3828,1 52469U 22049U   23240.74112892  .00000545  00000-0  52337-4 0  9996,2 52469  53.2165 246.8887 0001418  85.7761 274.3393 15.08838138 72769,6917.886,95.438,540.732,538.77,0.0
52469.0,STARLINK-3828,PAYLOAD,2023-08-29 08:05:41,15.08840921,0.0001399,53.2162,244.212,87.8785,272.2367,3.9673e-05,3.44e-06,0.0,0 STARLINK-3828,1 52469U 22049U   23241.33728787  .00000344  00000-0  39673-4 0  9993,2 52469  53.2162 244.2120 0001399  87.8785 272.2367 15.08840921 73015,6917.878,95.437,540.71,538.775,0.0
52469.0,STARLINK-3828,PAYLOAD,2023-08-29 23:59:34,15.08826777,0.0001583,53.2174,241.24,82.7697,277.3476,-6.8577e-05,-1.379e-05,0.0,0 STARLINK-3828,1 52469U 22049U   23241.99970497 -.00001379  00000-0 -68577-4 0  9998,2 52469  53.2174 241.2400 0001583  82.7697 277.3476 15.08826777 73118,6917.921,95.438,540.881,538.691,0.0
52469.0,STARLINK-3828,PAYLOAD,2023-08-30 06:21:07,15.08819685,0.0001456,53.2163,240.0498,86.8844,273.2315,-0.00012542,-2.282e-05,0.0,0 STARLINK-3828,1 52469U 22049U   23242.26467283 -.00002282  00000-0 -12542-3 0  9997,2 52469  53.2163 240.0498 0001456  86.8844 273.2315 15.08819685 73159,6917.942,95.439,540.815,538.8,0.0
52469.0,STARLINK-3828,PAYLOAD,2023-08-30 17:28:48,15.08833714,0.0001191,53.2167,237.9685,83.2159,276.8968,-1.3863e-05,-5.08e-06,0.0,0 STARLINK-3828,1 52469U 22049U   23242.72834374 -.00000508  00000-0 -13863-4 0  9994,2 52469  53.2167 237.9685 0001191  83.2159 276.8968 15.08833714 73064,6917.9,95.438,540.589,538.941,0.0
52469.0,STARLINK-3828,PAYLOAD,2023-08-30 23:50:21,15.08831506,0.000106,53.2172,236.779,77.9189,282.1922,3.8894e-05,3.31e-06,0.0,0 STARLINK-3828,1 52469U 22049U   23242.99330471  .00000331  00000-0  38894-4 0  9995,2 52469  53.2172 236.7790 0001060  77.9189 282.1922 15.08831506 73261,6917.906,95.438,540.505,539.038,0.0
52469.0,STARLINK-3828,PAYLOAD,2023-08-31 09:22:39,15.08844016,0.0001142,53.2171,234.9949,83.3052,276.807,0.00013198,1.813e-05,0.0,0 STARLINK-3828,1 52469U 22049U   23243.39073456  .00001813  00000-0  13198-3 0  9992,2 52469  53.2171 234.9949 0001142  83.3052 276.8070 15.08844016 73328,6917.868,95.437,540.523,538.943,0.0
52469.0,STARLINK-3828,PAYLOAD,2023-09-01 09:13:25,15.08846878,0.0001325,53.2162,230.5344,80.1161,279.9981,0.0002753,4.097e-05,0.0,0 STARLINK-3828,1 52469U 22049U   23244.38432791  .00004097  00000-0  27530-3 0  9995,2 52469  53.2162 230.5344 0001325  80.1161 279.9981 15.08846878 73310,6917.859,95.437,540.641,538.808,0.0
52469.0,STARLINK-3828,PAYLOAD,2023-09-02 01:07:18,15.08833353,7.51e-05,53.2155,227.5601,104.0992,256.0084,0.00012554,1.711e-05,0.0,0 STARLINK-3828,1 52469U 22049U   23245.04673860  .00001711  00000-0  12554-3 0  9993,2 52469  53.2155 227.5601 0000751 104.0992 256.0084 15.08833353 73576,6917.901,95.438,540.285,539.246,0.0
52469.0,STARLINK-3828,PAYLOAD,2023-09-02 09:04:14,15.08819283,0.0001495,53.2169,226.0726,75.995,284.1208,0.00036926,5.59e-05,0.0,0 STARLINK-3828,1 52469U 22049U   23245.37794025  .00005590  00000-0  36926-3 0  9994,2 52469  53.2169 226.0726 0001495  75.9950 284.1208 15.08819283 73463,6917.944,95.439,540.843,538.774,0.0
52469.0,STARLINK-3828,PAYLOAD,2023-09-02 15:25:46,15.0884583,0.0001493,53.2168,224.8828,78.1652,281.9507,-0.0001073,-1.996e-05,0.0,0 STARLINK-3828,1 52469U 22049U   23245.64289499 -.00001996  00000-0 -10730-3 0  9991,2 52469  53.2168 224.8828 0001493  78.1652 281.9507 15.08845830 73669,6917.863,95.437,540.76,538.695,0.0
52469.0,STARLINK-3828,PAYLOAD,2023-09-03 07:19:37,15.08845778,0.0001341,53.2162,221.9106,89.3893,270.7253,-9.7615e-05,-1.841e-05,0.0,0 STARLINK-3828,1 52469U 22049U   23246.30529194 -.00001841  00000-0 -97615-4 0  9991,2 52469  53.2162 221.9106 0001341  89.3893 270.7253 15.08845778 73602,6917.863,95.437,540.655,538.8,0.0
